[{
    "OBJECT_NAME": "STARLINK-5590",
    "OBJECT_ID": "2023-013AS",
    "EPOCH": "2023-07-17T07:33:25.506720",
    "MEAN_MOTION": 15.0253905,
    "ECCENTRICITY": 0.0001233,
    "INCLINATION": 43.0024,
    "RA_OF_ASC_NODE": 164.1494,
    "ARG_OF_PERICENTER": 269.4541,
    "MEAN_ANOMALY": 90.616,
    "EPHEMERIS_TYPE": 0,
    "CLASSIFICATION_TYPE": "U",
    "NORAD_CAT_ID": 55371,
    "ELEMENT_SET_NO": 999,
    "REV_AT_EPOCH": 2662,
    "BSTAR": -6.2753e-6,
    "MEAN_MOTION_DOT": -2.88e-6,
    "MEAN_MOTION_DDOT": 0
},{
    "OBJECT_NAME": "STARLINK-5568",
    "OBJECT_ID": "2023-013AT",
    "EPOCH": "2023-07-16T22:07:02.717472",
    "MEAN_MOTION": 15.02559833,
    "ECCENTRICITY": 6.19e-5,
    "INCLINATION": 43.0027,
    "RA_OF_ASC_NODE": 166.3582,
    "ARG_OF_PERICENTER": 285.7656,
    "MEAN_ANOMALY": 74.3118,
    "EPHEMERIS_TYPE": 0,
    "CLASSIFICATION_TYPE": "U",
    "NORAD_CAT_ID": 55372,
    "ELEMENT_SET_NO": 999,
    "REV_AT_EPOCH": 2656,
    "BSTAR": -0.00036026,
    "MEAN_MOTION_DOT": -5.069e-5,
    "MEAN_MOTION_DDOT": 0
},{
    "OBJECT_NAME": "STARLINK-5581",
    "OBJECT_ID": "2023-013AU",
    "EPOCH": "2023-07-17T07:30:13.728960",
    "MEAN_MOTION": 15.02537659,
    "ECCENTRICITY": 0.0001275,
    "INCLINATION": 43.003,
    "RA_OF_ASC_NODE": 164.1333,
    "ARG_OF_PERICENTER": 271.3235,
    "MEAN_ANOMALY": 88.7461,
    "EPHEMERIS_TYPE": 0,
    "CLASSIFICATION_TYPE": "U",
    "NORAD_CAT_ID": 55373,
    "ELEMENT_SET_NO": 999,
    "REV_AT_EPOCH": 2662,
    "BSTAR": 3.7241e-5,
    "MEAN_MOTION_DOT": 2.99e-6,
    "MEAN_MOTION_DDOT": 0
},{
    "OBJECT_NAME": "STARLINK-5578",
    "OBJECT_ID": "2023-013AV",
    "EPOCH": "2023-07-17T07:38:12.639840",
    "MEAN_MOTION": 15.02545049,
    "ECCENTRICITY": 0.0001296,
    "INCLINATION": 43.0033,
    "RA_OF_ASC_NODE": 164.1753,
    "ARG_OF_PERICENTER": 273.9518,
    "MEAN_ANOMALY": 86.1176,
    "EPHEMERIS_TYPE": 0,
    "CLASSIFICATION_TYPE": "U",
    "NORAD_CAT_ID": 55374,
    "ELEMENT_SET_NO": 999,
    "REV_AT_EPOCH": 2662,
    "BSTAR": 7.323e-5,
    "MEAN_MOTION_DOT": 7.86e-6,
    "MEAN_MOTION_DDOT": 0
},{
    "OBJECT_NAME": "STARLINK-5588",
    "OBJECT_ID": "2023-013AW",
    "EPOCH": "2023-07-16T23:26:47.943456",
    "MEAN_MOTION": 15.02535547,
    "ECCENTRICITY": 0.000128,
    "INCLINATION": 43.0031,
    "RA_OF_ASC_NODE": 165.9155,
    "ARG_OF_PERICENTER": 276.429,
    "MEAN_ANOMALY": 83.6407,
    "EPHEMERIS_TYPE": 0,
    "CLASSIFICATION_TYPE": "U",
    "NORAD_CAT_ID": 55375,
    "ELEMENT_SET_NO": 999,
    "REV_AT_EPOCH": 2657,
    "BSTAR": -3.2927e-5,
    "MEAN_MOTION_DOT": -6.48e-6,
    "MEAN_MOTION_DDOT": 0
},{
    "OBJECT_NAME": "STARLINK-5586",
    "OBJECT_ID": "2023-013AX",
    "EPOCH": "2023-07-17T07:32:33.364320",
    "MEAN_MOTION": 15.02547634,
    "ECCENTRICITY": 0.0001294,
    "INCLINATION": 43.0027,
    "RA_OF_ASC_NODE": 138.1439,
    "ARG_OF_PERICENTER": 260.7879,
    "MEAN_ANOMALY": 99.2817,
    "EPHEMERIS_TYPE": 0,
    "CLASSIFICATION_TYPE": "U",
    "NORAD_CAT_ID": 55376,
    "ELEMENT_SET_NO": 999,
    "REV_AT_EPOCH": 2692,
    "BSTAR": 7.9969e-6,
    "MEAN_MOTION_DOT": -9.6e-7,
    "MEAN_MOTION_DDOT": 0
},{
    "OBJECT_NAME": "STARLINK-5567",
    "OBJECT_ID": "2023-013AY",
    "EPOCH": "2023-07-16T23:06:01.012608",
    "MEAN_MOTION": 15.02532655,
    "ECCENTRICITY": 0.0001464,
    "INCLINATION": 43.0026,
    "RA_OF_ASC_NODE": 165.8071,
    "ARG_OF_PERICENTER": 266.7086,
    "MEAN_ANOMALY": 93.3589,
    "EPHEMERIS_TYPE": 0,
    "CLASSIFICATION_TYPE": "U",
    "NORAD_CAT_ID": 55377,
    "ELEMENT_SET_NO": 999,
    "REV_AT_EPOCH": 2657,
    "BSTAR": 6.314e-5,
    "MEAN_MOTION_DOT": 6.49e-6,
    "MEAN_MOTION_DDOT": 0
},{
    "OBJECT_NAME": "STARLINK-5572",
    "OBJECT_ID": "2023-013AZ",
    "EPOCH": "2023-07-17T07:28:37.831872",
    "MEAN_MOTION": 15.02538201,
    "ECCENTRICITY": 0.0001167,
    "INCLINATION": 43.0034,
    "RA_OF_ASC_NODE": 164.1299,
    "ARG_OF_PERICENTER": 270.4051,
    "MEAN_ANOMALY": 89.6657,
    "EPHEMERIS_TYPE": 0,
    "CLASSIFICATION_TYPE": "U",
    "NORAD_CAT_ID": 55378,
    "ELEMENT_SET_NO": 999,
    "REV_AT_EPOCH": 2662,
    "BSTAR": 8.3358e-6,
    "MEAN_MOTION_DOT": -9.1e-7,
    "MEAN_MOTION_DDOT": 0
},{
    "OBJECT_NAME": "STARLINK-5569",
    "OBJECT_ID": "2023-013BA",
    "EPOCH": "2023-07-16T23:14:00.431520",
    "MEAN_MOTION": 15.02535451,
    "ECCENTRICITY": 0.0001374,
    "INCLINATION": 43.0024,
    "RA_OF_ASC_NODE": 165.849,
    "ARG_OF_PERICENTER": 268.0743,
    "MEAN_ANOMALY": 91.9942,
    "EPHEMERIS_TYPE": 0,
    "CLASSIFICATION_TYPE": "U",
    "NORAD_CAT_ID": 55379,
    "ELEMENT_SET_NO": 999,
    "REV_AT_EPOCH": 2657,
    "BSTAR": 2.1329e-5,
    "MEAN_MOTION_DOT": 8.4e-7,
    "MEAN_MOTION_DDOT": 0
},{
    "OBJECT_NAME": "STARLINK-5571",
    "OBJECT_ID": "2023-013BB",
    "EPOCH": "2023-07-16T02:46:16.323744",
    "MEAN_MOTION": 15.02532773,
    "ECCENTRICITY": 0.0001361,
    "INCLINATION": 43.0031,
    "RA_OF_ASC_NODE": 144.6298,
    "ARG_OF_PERICENTER": 264.4643,
    "MEAN_ANOMALY": 95.6044,
    "EPHEMERIS_TYPE": 0,
    "CLASSIFICATION_TYPE": "U",
    "NORAD_CAT_ID": 55380,
    "ELEMENT_SET_NO": 999,
    "REV_AT_EPOCH": 2674,
    "BSTAR": 3.2579e-5,
    "MEAN_MOTION_DOT": 2.36e-6,
    "MEAN_MOTION_DDOT": 0
},{
    "OBJECT_NAME": "STARLINK-5575",
    "OBJECT_ID": "2023-013BC",
    "EPOCH": "2023-07-17T07:07:50.836224",
    "MEAN_MOTION": 15.02540944,
    "ECCENTRICITY": 0.0001362,
    "INCLINATION": 43.0028,
    "RA_OF_ASC_NODE": 164.0146,
    "ARG_OF_PERICENTER": 266.4946,
    "MEAN_ANOMALY": 93.5741,
    "EPHEMERIS_TYPE": 0,
    "CLASSIFICATION_TYPE": "U",
    "NORAD_CAT_ID": 55381,
    "ELEMENT_SET_NO": 999,
    "REV_AT_EPOCH": 2662,
    "BSTAR": 3.1092e-5,
    "MEAN_MOTION_DOT": 2.16e-6,
    "MEAN_MOTION_DDOT": 0
},{
    "OBJECT_NAME": "STARLINK-5576",
    "OBJECT_ID": "2023-013BD",
    "EPOCH": "2023-07-17T07:20:38.243616",
    "MEAN_MOTION": 15.02541896,
    "ECCENTRICITY": 0.0001253,
    "INCLINATION": 43.0029,
    "RA_OF_ASC_NODE": 164.087,
    "ARG_OF_PERICENTER": 273.6028,
    "MEAN_ANOMALY": 86.4672,
    "EPHEMERIS_TYPE": 0,
    "CLASSIFICATION_TYPE": "U",
    "NORAD_CAT_ID": 55382,
    "ELEMENT_SET_NO": 999,
    "REV_AT_EPOCH": 2662,
    "BSTAR": 1.8752e-5,
    "MEAN_MOTION_DOT": 5.0e-7,
    "MEAN_MOTION_DDOT": 0
},{
    "OBJECT_NAME": "STARLINK-5531",
    "OBJECT_ID": "2023-013BE",
    "EPOCH": "2023-07-16T21:50:13.023744",
    "MEAN_MOTION": 15.02532207,
    "ECCENTRICITY": 0.0001098,
    "INCLINATION": 43.0017,
    "RA_OF_ASC_NODE": 140.2666,
    "ARG_OF_PERICENTER": 273.1727,
    "MEAN_ANOMALY": 86.899,
    "EPHEMERIS_TYPE": 0,
    "CLASSIFICATION_TYPE": "U",
    "NORAD_CAT_ID": 55383,
    "ELEMENT_SET_NO": 999,
    "REV_AT_EPOCH": 2686,
    "BSTAR": -8.6424e-5,
    "MEAN_MOTION_DOT": -1.371e-5,
    "MEAN_MOTION_DDOT": 0
},{
    "OBJECT_NAME": "STARLINK-5537",
    "OBJECT_ID": "2023-013BF",
    "EPOCH": "2023-07-16T07:19:56.097696",
    "MEAN_MOTION": 15.0252613,
    "ECCENTRICITY": 0.0001348,
    "INCLINATION": 43.0024,
    "RA_OF_ASC_NODE": 169.4803,
    "ARG_OF_PERICENTER": 269.552,
    "MEAN_ANOMALY": 90.5168,
    "EPHEMERIS_TYPE": 0,
    "CLASSIFICATION_TYPE": "U",
    "NORAD_CAT_ID": 55384,
    "ELEMENT_SET_NO": 999,
    "REV_AT_EPOCH": 2647,
    "BSTAR": -4.718e-5,
    "MEAN_MOTION_DOT": -8.41e-6,
    "MEAN_MOTION_DDOT": 0
},{
    "OBJECT_NAME": "STARLINK-5556",
    "OBJECT_ID": "2023-013BG",
    "EPOCH": "2023-07-16T22:56:25.696608",
    "MEAN_MOTION": 15.02526283,
    "ECCENTRICITY": 0.0001229,
    "INCLINATION": 43.003,
    "RA_OF_ASC_NODE": 165.7536,
    "ARG_OF_PERICENTER": 265.1987,
    "MEAN_ANOMALY": 94.8715,
    "EPHEMERIS_TYPE": 0,
    "CLASSIFICATION_TYPE": "U",
    "NORAD_CAT_ID": 55385,
    "ELEMENT_SET_NO": 999,
    "REV_AT_EPOCH": 2657,
    "BSTAR": 0.00014672,
    "MEAN_MOTION_DOT": 1.778e-5,
    "MEAN_MOTION_DDOT": 0
},{
    "OBJECT_NAME": "STARLINK-5555",
    "OBJECT_ID": "2023-013BH",
    "EPOCH": "2023-07-16T23:01:13.084608",
    "MEAN_MOTION": 15.02538307,
    "ECCENTRICITY": 0.0001277,
    "INCLINATION": 43.003,
    "RA_OF_ASC_NODE": 165.7784,
    "ARG_OF_PERICENTER": 269.5745,
    "MEAN_ANOMALY": 90.4951,
    "EPHEMERIS_TYPE": 0,
    "CLASSIFICATION_TYPE": "U",
    "NORAD_CAT_ID": 55386,
    "ELEMENT_SET_NO": 999,
    "REV_AT_EPOCH": 2657,
    "BSTAR": 4.9286e-5,
    "MEAN_MOTION_DOT": 4.62e-6,
    "MEAN_MOTION_DDOT": 0
},{
    "OBJECT_NAME": "STARLINK-5077",
    "OBJECT_ID": "2023-014A",
    "EPOCH": "2023-07-16T14:00:01.000224",
    "MEAN_MOTION": 15.46044539,
    "ECCENTRICITY": 0.000335,
    "INCLINATION": 70.0008,
    "RA_OF_ASC_NODE": 345.0578,
    "ARG_OF_PERICENTER": 271.7017,
    "MEAN_ANOMALY": 234.4079,
    "EPHEMERIS_TYPE": 0,
    "CLASSIFICATION_TYPE": "U",
    "NORAD_CAT_ID": 55391,
    "ELEMENT_SET_NO": 999,
    "REV_AT_EPOCH": 2619,
    "BSTAR": -0.020776,
    "MEAN_MOTION_DOT": -0.00935096,
    "MEAN_MOTION_DDOT": 0
},{
    "OBJECT_NAME": "STARLINK-5085",
    "OBJECT_ID": "2023-014B",
    "EPOCH": "2023-07-17T10:11:20.923008",
    "MEAN_MOTION": 15.69930102,
    "ECCENTRICITY": 0.0002125,
    "INCLINATION": 70.0021,
    "RA_OF_ASC_NODE": 340.886,
    "ARG_OF_PERICENTER": 274.0598,
    "MEAN_ANOMALY": 86.0354,
    "EPHEMERIS_TYPE": 0,
    "CLASSIFICATION_TYPE": "U",
    "NORAD_CAT_ID": 55392,
    "ELEMENT_SET_NO": 999,
    "REV_AT_EPOCH": 2637,
    "BSTAR": 3.1038e-5,
    "MEAN_MOTION_DOT": 3.522e-5,
    "MEAN_MOTION_DDOT": 0
},{
    "OBJECT_NAME": "STARLINK-4786",
    "OBJECT_ID": "2023-014C",
    "EPOCH": "2023-07-17T12:00:00.999648",
    "MEAN_MOTION": 15.44120748,
    "ECCENTRICITY": 0.0003247,
    "INCLINATION": 70.001,
    "RA_OF_ASC_NODE": 342.578,
    "ARG_OF_PERICENTER": 266.5448,
    "MEAN_ANOMALY": 293.7216,
    "EPHEMERIS_TYPE": 0,
    "CLASSIFICATION_TYPE": "U",
    "NORAD_CAT_ID": 55393,
    "ELEMENT_SET_NO": 999,
    "REV_AT_EPOCH": 2634,
    "BSTAR": -0.022955,
    "MEAN_MOTION_DOT": -0.00964575,
    "MEAN_MOTION_DDOT": 0
}]
